ONEWEB-0371             
1 49297U 21090U   24214.64003962  .00000010  00000+0 -84980-5 0  9991
2 49297  87.9118  81.1645 0001683  80.1493 279.9830 13.19724552136169
ONEWEB-0372             
1 49298U 21090V   24214.54721716  .00000053  00000+0  97679-4 0  9999
2 49298  87.9181  50.6457 0001724  83.7716 276.3613 13.20770702139461
ONEWEB-0373             
1 49299U 21090W   24214.49843381  .00000143  00000+0  32071-3 0  9991
2 49299  87.9181  50.6709 0002083  80.6188 279.5181 13.20769908140643
ONEWEB-0374             
1 49300U 21090X   24214.51536867  .00000146  00000+0  35931-3 0  9996
2 49300  87.8927  65.8976 0001874  80.8960 279.2381 13.14501166137619
ONEWEB-0375             
1 49301U 21090Y   24214.56156379  .00000050  00000+0  90429-4 0  9996
2 49301  87.9179  50.6344 0002579  90.9792 269.1637 13.20773835140155
ONEWEB-0376             
1 49302U 21090Z   24214.56263759  .00000017  00000+0  10814-4 0  9991
2 49302  87.9109  81.1855 0001656  72.4212 287.7101 13.19726425136150
ONEWEB-0377             
1 49303U 21090AA  24214.54750053  .00000025  00000+0  28858-4 0  9994
2 49303  87.9182  50.6293 0001821  94.9403 265.1938 13.20770904140149
ONEWEB-0378             
1 49304U 21090AB  24214.49384774  .00000090  00000+0  18982-3 0  9990
2 49304  87.9183  50.6433 0001982  86.2052 273.9307 13.20771759139402
